{"type": "FeatureCollection", "features": [ {"type": "Feature", "properties": {"norad_id": 32384, "name": "GPS BIIRM-5 (PRN 29)", "group": "gps-ops", "lat": 38.77128010071903, "lon": 67.55004114636583, "alt_km": 20103.52395098882, "timestamp": "2025-12-16T05:49:09.473601+00:00", "meta": {"OBJECT_NAME": "GPS BIIRM-5 (PRN 29)", "OBJECT_ID": "2007-062A", "EPOCH": "2025-12-15T07:18:28.711872", "MEAN_MOTION": 2.00577504, "ECCENTRICITY": 0.00322412, "INCLINATION": 55.1799, "RA_OF_ASC_NODE": 281.543, "ARG_OF_PERICENTER": 162.3611, "MEAN_ANOMALY": 10.7934, "EPHEMERIS_TYPE": 0, "CLASSIFICATION_TYPE": "U", "NORAD_CAT_ID": 32384, "ELEMENT_SET_NO": 999, "REV_AT_EPOCH": 13182, "BSTAR": 0, "MEAN_MOTION_DOT": -7.4e-07, "MEAN_MOTION_DDOT": 0}, "tle": {"line1": "1 32384U 07062A   25349.30449898 -.00000074  00000+0  00000+0 0  9993", "line2": "2 32384  55.1799 281.5430 0032241 162.3611  10.7934  2.00577504131822"}}, "geometry": {"type": "Point", "coordinates": [67.55004114636583, 38.77128010071903]}}, {"type": "Feature", "properties": {"norad_id": 32711, "name": "GPS BIIRM-6 (PRN 07)", "group": "gps-ops", "lat": 41.85731301853144, "lon": -162.96310022801217, "alt_km": 20706.5742541525, "timestamp": "2025-12-16T05:49:09.473612+00:00", "meta": {"OBJECT_NAME": "GPS BIIRM-6 (PRN 07)", "OBJECT_ID": "2008-012A", "EPOCH": "2025-12-15T15:57:56.403360", "MEAN_MOTION": 2.00565798, "ECCENTRICITY": 0.02025653, "INCLINATION": 54.4774, "RA_OF_ASC_NODE": 157.2561, "ARG_OF_PERICENTER": 244.9811, "MEAN_ANOMALY": 112.9132, "EPHEMERIS_TYPE": 0, "CLASSIFICATION_TYPE": "U", "NORAD_CAT_ID": 32711, "ELEMENT_SET_NO": 999, "REV_AT_EPOCH": 13007, "BSTAR": 0, "MEAN_MOTION_DOT": 9.3e-07, "MEAN_MOTION_DDOT": 0}, "tle": {"line1": "1 32711U 08012A   25349.66523615  .00000093  00000+0  00000+0 0  9992", "line2": "2 32711  54.4774 157.2561 0202565 244.9811 112.9132  2.00565798130075"}}, "geometry": {"type": "Point", "coordinates": [-162.96310022801217, 41.85731301853144]}}, {"type": "Feature", "properties": {"norad_id": 35752, "name": "GPS BIIRM-8 (PRN 05)", "group": "gps-ops", "lat": 53.126513843131555, "lon": 98.29338225212513, "alt_km": 20039.41653761218, "timestamp": "2025-12-16T05:49:09.473624+00:00", "meta": {"OBJECT_NAME": "GPS BIIRM-8 (PRN 05)", "OBJECT_ID": "2009-043A", "EPOCH": "2025-12-15T22:20:02.106816", "MEAN_MOTION": 2.00565586, "ECCENTRICITY": 0.00517182, "INCLINATION": 56.0932, "RA_OF_ASC_NODE": 34.6571, "ARG_OF_PERICENTER": 81.8462, "MEAN_ANOMALY": 127.6063, "EPHEMERIS_TYPE": 0, "CLASSIFICATION_TYPE": "U", "NORAD_CAT_ID": 35752, "ELEMENT_SET_NO": 999, "REV_AT_EPOCH": 11968, "BSTAR": 0, "MEAN_MOTION_DOT": -8.6e-07, "MEAN_MOTION_DDOT": 0}, "tle": {"line1": "1 35752U 09043A   25349.93057994 -.00000086  00000+0  00000+0 0  9990", "line2": "2 35752  56.0932  34.6571 0051718  81.8462 127.6063  2.00565586119683"}}, "geometry": {"type": "Point", "coordinates": [98.29338225212513, 53.126513843131555]}}, {"type": "Feature", "properties": {"norad_id": 36585, "name": "GPS BIIF-1  (PRN 25)", "group": "gps-ops", "lat": -11.339776511680972, "lon": 44.229137534763815, "alt_km": 20392.9129891504, "timestamp": "2025-12-16T05:49:09.473635+00:00", "meta": {"OBJECT_NAME": "GPS BIIF-1  (PRN 25)", "OBJECT_ID": "2010-022A", "EPOCH": "2025-12-15T05:30:38.622816", "MEAN_MOTION": 2.00553409, "ECCENTRICITY": 0.01262158, "INCLINATION": 54.2997, "RA_OF_ASC_NODE": 215.9735, "ARG_OF_PERICENTER": 65.1022, "MEAN_ANOMALY": 116.5143, "EPHEMERIS_TYPE": 0, "CLASSIFICATION_TYPE": "U", "NORAD_CAT_ID": 36585, "ELEMENT_SET_NO": 999, "REV_AT_EPOCH": 11390, "BSTAR": 0, "MEAN_MOTION_DOT": 6.3e-07, "MEAN_MOTION_DDOT": 0}, "tle": {"line1": "1 36585U 10022A   25349.22961369  .00000063  00000+0  00000+0 0  9990", "line2": "2 36585  54.2997 215.9735 0126215  65.1022 116.5143  2.00553409113903"}}, "geometry": {"type": "Point", "coordinates": [44.229137534763815, -11.339776511680972]}}, {"type": "Feature", "properties": {"norad_id": 38833, "name": "GPS BIIF-3  (PRN 24)", "group": "gps-ops", "lat": -49.45151846390251, "lon": 91.32473234717665, "alt_km": 20513.482063083913, "timestamp": "2025-12-16T05:49:09.473662+00:00", "meta": {"OBJECT_NAME": "GPS BIIF-3  (PRN 24)", "OBJECT_ID": "2012-053A", "EPOCH": "2025-12-14T20:17:27.870144", "MEAN_MOTION": 2.00565059, "ECCENTRICITY": 0.01759136, "INCLINATION": 53.558, "RA_OF_ASC_NODE": 151.1523, "ARG_OF_PERICENTER": 64.0191, "MEAN_ANOMALY": 297.785, "EPHEMERIS_TYPE": 0, "CLASSIFICATION_TYPE": "U", "NORAD_CAT_ID": 38833, "ELEMENT_SET_NO": 999, "REV_AT_EPOCH": 9574, "BSTAR": 0, "MEAN_MOTION_DOT": 8.8e-07, "MEAN_MOTION_DDOT": 0}, "tle": {"line1": "1 38833U 12053A   25348.84546146  .00000088  00000+0  00000+0 0  9990", "line2": "2 38833  53.5580 151.1523 0175913  64.0191 297.7850  2.00565059 95743"}}, "geometry": {"type": "Point", "coordinates": [91.32473234717665, -49.45151846390251]}}, {"type": "Feature", "properties": {"norad_id": 39166, "name": "GPS BIIF-4  (PRN 27)", "group": "gps-ops", "lat": 22.161335740573655, "lon": -66.8091479489088, "alt_km": 19837.276924553396, "timestamp": "2025-12-16T05:49:09.473674+00:00", "meta": {"OBJECT_NAME": "GPS BIIF-4  (PRN 27)", "OBJECT_ID": "2013-023A", "EPOCH": "2025-12-15T04:59:33.811872", "MEAN_MOTION": 2.00564736, "ECCENTRICITY": 0.01378529, "INCLINATION": 54.65, "RA_OF_ASC_NODE": 276.4679, "ARG_OF_PERICENTER": 48.4851, "MEAN_ANOMALY": 312.7012, "EPHEMERIS_TYPE": 0, "CLASSIFICATION_TYPE": "U", "NORAD_CAT_ID": 39166, "ELEMENT_SET_NO": 999, "REV_AT_EPOCH": 9219, "BSTAR": 0, "MEAN_MOTION_DOT": -6.8e-07, "MEAN_MOTION_DDOT": 0}, "tle": {"line1": "1 39166U 13023A   25349.20803023 -.00000068  00000+0  00000+0 0  9998", "line2": "2 39166  54.6500 276.4679 0137852  48.4851 312.7012  2.00564736 92194"}}, "geometry": {"type": "Point", "coordinates": [-66.8091479489088, 22.161335740573655]}}, {"type": "Feature", "properties": {"norad_id": 39533, "name": "GPS BIIF-5  (PRN 30)", "group": "gps-ops", "lat": 24.477474752684653, "lon": 176.38296983216148, "alt_km": 20380.904000716542, "timestamp": "2025-12-16T05:49:09.473686+00:00", "meta": {"OBJECT_NAME": "GPS BIIF-5  (PRN 30)", "OBJECT_ID": "2014-008A", "EPOCH": "2025-12-15T16:48:38.811744", "MEAN_MOTION": 2.00574628, "ECCENTRICITY": 0.00792998, "INCLINATION": 53.6317, "RA_OF_ASC_NODE": 156.8039, "ARG_OF_PERICENTER": 226.551, "MEAN_ANOMALY": 132.7971, "EPHEMERIS_TYPE": 0, "CLASSIFICATION_TYPE": "U", "NORAD_CAT_ID": 39533, "ELEMENT_SET_NO": 999, "REV_AT_EPOCH": 8600, "BSTAR": 0, "MEAN_MOTION_DOT": 9e-07, "MEAN_MOTION_DDOT": 0}, "tle": {"line1": "1 39533U 14008A   25349.70044921  .00000090  00000+0  00000+0 0  9993", "line2": "2 39533  53.6317 156.8039 0079299 226.5510 132.7971  2.00574628 86007"}}, "geometry": {"type": "Point", "coordinates": [176.38296983216148, 24.477474752684653]}}, {"type": "Feature", "properties": {"norad_id": 39741, "name": "GPS BIIF-6  (PRN 06)", "group": "gps-ops", "lat": -5.0531504119812105, "lon": 161.98027055790192, "alt_km": 20253.9039223993, "timestamp": "2025-12-16T05:49:09.473697+00:00", "meta": {"OBJECT_NAME": "GPS BIIF-6  (PRN 06)", "OBJECT_ID": "2014-026A", "EPOCH": "2025-12-15T11:38:58.689600", "MEAN_MOTION": 2.00561238, "ECCENTRICITY": 0.00392615, "INCLINATION": 56.5825, "RA_OF_ASC_NODE": 338.6695, "ARG_OF_PERICENTER": 318.8449, "MEAN_ANOMALY": 40.8708, "EPHEMERIS_TYPE": 0, "CLASSIFICATION_TYPE": "U", "NORAD_CAT_ID": 39741, "ELEMENT_SET_NO": 999, "REV_AT_EPOCH": 8485, "BSTAR": 0, "MEAN_MOTION_DOT": -8.7e-07, "MEAN_MOTION_DDOT": 0}, "tle": {"line1": "1 39741U 14026A   25349.48540150 -.00000087  00000+0  00000+0 0  9991", "line2": "2 39741  56.5825 338.6695 0039261 318.8449  40.8708  2.00561238 84854"}}, "geometry": {"type": "Point", "coordinates": [161.98027055790192, -5.0531504119812105]}}, {"type": "Feature", "properties": {"norad_id": 40105, "name": "GPS BIIF-7  (PRN 09)", "group": "gps-ops", "lat": 42.939883455503285, "lon": -124.46294939796535, "alt_km": 20089.654868271897, "timestamp": "2025-12-16T05:49:09.473709+00:00", "meta": {"OBJECT_NAME": "GPS BIIF-7  (PRN 09)", "OBJECT_ID": "2014-045A", "EPOCH": "2025-12-12T01:59:18.865536", "MEAN_MOTION": 2.00572516, "ECCENTRICITY": 0.00326941, "INCLINATION": 55.2287, "RA_OF_ASC_NODE": 95.9251, "ARG_OF_PERICENTER": 119.8618, "MEAN_ANOMALY": 240.4523, "EPHEMERIS_TYPE": 0, "CLASSIFICATION_TYPE": "U", "NORAD_CAT_ID": 40105, "ELEMENT_SET_NO": 999, "REV_AT_EPOCH": 8232, "BSTAR": 0, "MEAN_MOTION_DOT": -9e-08, "MEAN_MOTION_DDOT": 0}, "tle": {"line1": "1 40105U 14045A   25346.08285724 -.00000009  00000+0  00000+0 0  9998", "line2": "2 40105  55.2287  95.9251 0032694 119.8618 240.4523  2.00572516 82323"}}, "geometry": {"type": "Point", "coordinates": [-124.46294939796535, 42.939883455503285]}}, {"type": "Feature", "properties": {"norad_id": 40294, "name": "GPS BIIF-8  (PRN 03)", "group": "gps-ops", "lat": -26.958964532460175, "lon": -122.58144877517083, "alt_km": 20315.58058832759, "timestamp": "2025-12-16T05:49:09.473720+00:00", "meta": {"OBJECT_NAME": "GPS BIIF-8  (PRN 03)", "OBJECT_ID": "2014-068A", "EPOCH": "2025-12-15T10:49:04.415520", "MEAN_MOTION": 2.0056507, "ECCENTRICITY": 0.00607763, "INCLINATION": 56.8599, "RA_OF_ASC_NODE": 38.0411, "ARG_OF_PERICENTER": 69.1257, "MEAN_ANOMALY": 291.5793, "EPHEMERIS_TYPE": 0, "CLASSIFICATION_TYPE": "U", "NORAD_CAT_ID": 40294, "ELEMENT_SET_NO": 999, "REV_AT_EPOCH": 8152, "BSTAR": 0, "MEAN_MOTION_DOT": -8.8e-07, "MEAN_MOTION_DDOT": 0}, "tle": {"line1": "1 40294U 14068A   25349.45074555 -.00000088  00000+0  00000+0 0  9991", "line2": "2 40294  56.8599  38.0411 0060776  69.1257 291.5793  2.00565070 81523"}}, "geometry": {"type": "Point", "coordinates": [-122.58144877517083, -26.958964532460175]}}]}